{"type": "FeatureCollection", "features": [ {"type": "Feature", "properties": {"norad_id": 32205, "name": "FENGYUN 1C DEB", "group": "fengyun-1c-debris", "lat": 55.91606250860992, "lon": 179.4471488991283, "alt_km": 848.0099273232136, "timestamp": "2025-12-08T08:59:01.051844+00:00", "meta": {"OBJECT_NAME": "FENGYUN 1C DEB", "OBJECT_ID": "1999-025CVB", "EPOCH": "2025-12-07T07:00:06.914880", "MEAN_MOTION": 14.13905826, "ECCENTRICITY": 0.00101886, "INCLINATION": 98.6785, "RA_OF_ASC_NODE": 345.3508, "ARG_OF_PERICENTER": 308.7747, "MEAN_ANOMALY": 66.9856, "EPHEMERIS_TYPE": 0, "CLASSIFICATION_TYPE": "U", "NORAD_CAT_ID": 32205, "ELEMENT_SET_NO": 999, "REV_AT_EPOCH": 94421, "BSTAR": 0.00028991809, "MEAN_MOTION_DOT": 5.07e-06, "MEAN_MOTION_DDOT": 0}, "tle": {"line1": "1 32205U 99025CVB 25341.29174670  .00000507  00000+0  28992-3 0  9992", "line2": "2 32205  98.6785 345.3508 0010188 308.7747  66.9856 14.13905826944218"}}, "geometry": {"type": "Point", "coordinates": [179.4471488991283, 55.91606250860992]}}, {"type": "Feature", "properties": {"norad_id": 32209, "name": "FENGYUN 1C DEB", "group": "fengyun-1c-debris", "lat": 54.369504840676164, "lon": -83.3518361123017, "alt_km": 842.5673238401787, "timestamp": "2025-12-08T08:59:01.051854+00:00", "meta": {"OBJECT_NAME": "FENGYUN 1C DEB", "OBJECT_ID": "1999-025CVF", "EPOCH": "2025-12-01T19:52:12.211968", "MEAN_MOTION": 13.47100658, "ECCENTRICITY": 0.03328885, "INCLINATION": 99.4197, "RA_OF_ASC_NODE": 283.8685, "ARG_OF_PERICENTER": 52.3889, "MEAN_ANOMALY": 310.6974, "EPHEMERIS_TYPE": 0, "CLASSIFICATION_TYPE": "U", "NORAD_CAT_ID": 32209, "ELEMENT_SET_NO": 999, "REV_AT_EPOCH": 89829, "BSTAR": 0.002968545, "MEAN_MOTION_DOT": 2.491e-05, "MEAN_MOTION_DDOT": 0}, "tle": {"line1": "1 32209U 99025CVF 25335.82791912  .00002491  00000+0  29685-2 0  9995", "line2": "2 32209  99.4197 283.8685 0332888  52.3889 310.6974 13.47100658898295"}}, "geometry": {"type": "Point", "coordinates": [-83.3518361123017, 54.369504840676164]}}, {"type": "Feature", "properties": {"norad_id": 32212, "name": "FENGYUN 1C DEB", "group": "fengyun-1c-debris", "lat": -43.264046468111154, "lon": -110.58764896650317, "alt_km": 830.2774584218951, "timestamp": "2025-12-08T08:59:01.051865+00:00", "meta": {"OBJECT_NAME": "FENGYUN 1C DEB", "OBJECT_ID": "1999-025CVJ", "EPOCH": "2025-12-07T05:25:21.707616", "MEAN_MOTION": 14.4029402, "ECCENTRICITY": 0.01380025, "INCLINATION": 99.5739, "RA_OF_ASC_NODE": 77.269, "ARG_OF_PERICENTER": 94.4688, "MEAN_ANOMALY": 297.2425, "EPHEMERIS_TYPE": 0, "CLASSIFICATION_TYPE": "U", "NORAD_CAT_ID": 32212, "ELEMENT_SET_NO": 999, "REV_AT_EPOCH": 95982, "BSTAR": 0.00083867725, "MEAN_MOTION_DOT": 2.917e-05, "MEAN_MOTION_DDOT": 0}, "tle": {"line1": "1 32212U 99025CVJ 25341.22594569  .00002917  00000+0  83868-3 0  9996", "line2": "2 32212  99.5739  77.2690 0138002  94.4688 297.2425 14.40294020959828"}}, "geometry": {"type": "Point", "coordinates": [-110.58764896650317, -43.264046468111154]}}, {"type": "Feature", "properties": {"norad_id": 32214, "name": "FENGYUN 1C DEB", "group": "fengyun-1c-debris", "lat": 59.91723679942522, "lon": -155.93632653739883, "alt_km": 866.5814783532442, "timestamp": "2025-12-08T08:59:01.051875+00:00", "meta": {"OBJECT_NAME": "FENGYUN 1C DEB", "OBJECT_ID": "1999-025CVL", "EPOCH": "2025-12-07T08:19:42.706848", "MEAN_MOTION": 13.9044803, "ECCENTRICITY": 0.01886004, "INCLINATION": 99.043, "RA_OF_ASC_NODE": 7.1069, "ARG_OF_PERICENTER": 53.8787, "MEAN_ANOMALY": 323.4066, "EPHEMERIS_TYPE": 0, "CLASSIFICATION_TYPE": "U", "NORAD_CAT_ID": 32214, "ELEMENT_SET_NO": 999, "REV_AT_EPOCH": 62347, "BSTAR": 0.0063004061, "MEAN_MOTION_DOT": 9.006e-05, "MEAN_MOTION_DDOT": 0}, "tle": {"line1": "1 32214U 99025CVL 25341.34702207  .00009006  00000+0  63004-2 0  9996", "line2": "2 32214  99.0430   7.1069 0188600  53.8787 323.4066 13.90448030623471"}}, "geometry": {"type": "Point", "coordinates": [-155.93632653739883, 59.91723679942522]}}, {"type": "Feature", "properties": {"norad_id": 32218, "name": "FENGYUN 1C DEB", "group": "fengyun-1c-debris", "lat": 46.6566822555104, "lon": 166.53758993261872, "alt_km": 666.2192513442924, "timestamp": "2025-12-08T08:59:01.051885+00:00", "meta": {"OBJECT_NAME": "FENGYUN 1C DEB", "OBJECT_ID": "1999-025CVQ", "EPOCH": "2025-12-07T19:38:02.709024", "MEAN_MOTION": 14.55437354, "ECCENTRICITY": 0.0063212, "INCLINATION": 98.8115, "RA_OF_ASC_NODE": 175.4109, "ARG_OF_PERICENTER": 82.3262, "MEAN_ANOMALY": 292.8039, "EPHEMERIS_TYPE": 0, "CLASSIFICATION_TYPE": "U", "NORAD_CAT_ID": 32218, "ELEMENT_SET_NO": 999, "REV_AT_EPOCH": 96161, "BSTAR": 0.0013230605, "MEAN_MOTION_DOT": 5.859e-05, "MEAN_MOTION_DDOT": 0}, "tle": {"line1": "1 32218U 99025CVQ 25341.81808691  .00005859  00000+0  13231-2 0  9995", "line2": "2 32218  98.8115 175.4109 0063212  82.3262 292.8039 14.55437354961611"}}, "geometry": {"type": "Point", "coordinates": [166.53758993261872, 46.6566822555104]}}, {"type": "Feature", "properties": {"norad_id": 32221, "name": "FENGYUN 1C DEB", "group": "fengyun-1c-debris", "lat": -66.04868677282792, "lon": -67.67587866724375, "alt_km": 700.2321791823115, "timestamp": "2025-12-08T08:59:01.051895+00:00", "meta": {"OBJECT_NAME": "FENGYUN 1C DEB", "OBJECT_ID": "1999-025CVT", "EPOCH": "2025-12-07T08:48:50.747328", "MEAN_MOTION": 14.58659753, "ECCENTRICITY": 0.0146628, "INCLINATION": 98.5657, "RA_OF_ASC_NODE": 131.1205, "ARG_OF_PERICENTER": 162.2259, "MEAN_ANOMALY": 198.4147, "EPHEMERIS_TYPE": 0, "CLASSIFICATION_TYPE": "U", "NORAD_CAT_ID": 32221, "ELEMENT_SET_NO": 999, "REV_AT_EPOCH": 97119, "BSTAR": 0.00076204927, "MEAN_MOTION_DOT": 4.068e-05, "MEAN_MOTION_DDOT": 0}, "tle": {"line1": "1 32221U 99025CVT 25341.36725402  .00004068  00000+0  76205-3 0  9999", "line2": "2 32221  98.5657 131.1205 0146628 162.2259 198.4147 14.58659753971193"}}, "geometry": {"type": "Point", "coordinates": [-67.67587866724375, -66.04868677282792]}}, {"type": "Feature", "properties": {"norad_id": 32223, "name": "FENGYUN 1C DEB", "group": "fengyun-1c-debris", "lat": 7.159386446254825, "lon": 60.31707159382208, "alt_km": 797.3368654752967, "timestamp": "2025-12-08T08:59:01.051905+00:00", "meta": {"OBJECT_NAME": "FENGYUN 1C DEB", "OBJECT_ID": "1999-025CVV", "EPOCH": "2025-12-03T10:55:28.371072", "MEAN_MOTION": 14.20810685, "ECCENTRICITY": 0.00466677, "INCLINATION": 98.8397, "RA_OF_ASC_NODE": 56.5179, "ARG_OF_PERICENTER": 345.0061, "MEAN_ANOMALY": 74.8726, "EPHEMERIS_TYPE": 0, "CLASSIFICATION_TYPE": "U", "NORAD_CAT_ID": 32223, "ELEMENT_SET_NO": 999, "REV_AT_EPOCH": 64092, "BSTAR": 0.0018929576, "MEAN_MOTION_DOT": 4.091e-05, "MEAN_MOTION_DDOT": 0}, "tle": {"line1": "1 32223U 99025CVV 25337.45518948  .00004091  00000+0  18930-2 0  9997", "line2": "2 32223  98.8397  56.5179 0046667 345.0061  74.8726 14.20810685640929"}}, "geometry": {"type": "Point", "coordinates": [60.31707159382208, 7.159386446254825]}}, {"type": "Feature", "properties": {"norad_id": 32224, "name": "FENGYUN 1C DEB", "group": "fengyun-1c-debris", "lat": -80.70201843363121, "lon": 8.276881452780962, "alt_km": 839.402679860159, "timestamp": "2025-12-08T08:59:01.051916+00:00", "meta": {"OBJECT_NAME": "FENGYUN 1C DEB", "OBJECT_ID": "1999-025CVW", "EPOCH": "2025-12-07T03:15:08.527968", "MEAN_MOTION": 14.34005172, "ECCENTRICITY": 0.00771728, "INCLINATION": 98.9832, "RA_OF_ASC_NODE": 291.9304, "ARG_OF_PERICENTER": 82.6612, "MEAN_ANOMALY": 278.3334, "EPHEMERIS_TYPE": 0, "CLASSIFICATION_TYPE": "U", "NORAD_CAT_ID": 32224, "ELEMENT_SET_NO": 999, "REV_AT_EPOCH": 95643, "BSTAR": 0.00054040696, "MEAN_MOTION_DOT": 1.513e-05, "MEAN_MOTION_DDOT": 0}, "tle": {"line1": "1 32224U 99025CVW 25341.13551537  .00001513  00000+0  54041-3 0  9999", "line2": "2 32224  98.9832 291.9304 0077172  82.6612 278.3334 14.34005172956435"}}, "geometry": {"type": "Point", "coordinates": [8.276881452780962, -80.70201843363121]}}, {"type": "Feature", "properties": {"norad_id": 32225, "name": "FENGYUN 1C DEB", "group": "fengyun-1c-debris", "lat": -16.776511674935453, "lon": -151.79747208560747, "alt_km": 805.828630134707, "timestamp": "2025-12-08T08:59:01.051926+00:00", "meta": {"OBJECT_NAME": "FENGYUN 1C DEB", "OBJECT_ID": "1999-025CVX", "EPOCH": "2025-12-07T09:57:30.529152", "MEAN_MOTION": 14.13038256, "ECCENTRICITY": 0.00714709, "INCLINATION": 99.0929, "RA_OF_ASC_NODE": 29.9957, "ARG_OF_PERICENTER": 221.5582, "MEAN_ANOMALY": 138.0143, "EPHEMERIS_TYPE": 0, "CLASSIFICATION_TYPE": "U", "NORAD_CAT_ID": 32225, "ELEMENT_SET_NO": 999, "REV_AT_EPOCH": 68041, "BSTAR": 0.00040358605, "MEAN_MOTION_DOT": 7.25e-06, "MEAN_MOTION_DDOT": 0}, "tle": {"line1": "1 32225U 99025CVX 25341.41493668  .00000725  00000+0  40359-3 0  9992", "line2": "2 32225  99.0929  29.9957 0071470 221.5582 138.0143 14.13038256680411"}}, "geometry": {"type": "Point", "coordinates": [-151.79747208560747, -16.776511674935453]}}, {"type": "Feature", "properties": {"norad_id": 32230, "name": "FENGYUN 1C DEB", "group": "fengyun-1c-debris", "lat": 73.5156075530139, "lon": 99.85368262127638, "alt_km": 667.0422329933126, "timestamp": "2025-12-08T08:59:01.051937+00:00", "meta": {"OBJECT_NAME": "FENGYUN 1C DEB", "OBJECT_ID": "1999-025CWC", "EPOCH": "2025-12-07T21:46:47.689824", "MEAN_MOTION": 14.55923223, "ECCENTRICITY": 0.00508773, "INCLINATION": 98.872, "RA_OF_ASC_NODE": 131.2176, "ARG_OF_PERICENTER": 104.3329, "MEAN_ANOMALY": 46.6525, "EPHEMERIS_TYPE": 0, "CLASSIFICATION_TYPE": "U", "NORAD_CAT_ID": 32230, "ELEMENT_SET_NO": 999, "REV_AT_EPOCH": 60599, "BSTAR": 0.0039932376, "MEAN_MOTION_DOT": 0.00017841, "MEAN_MOTION_DDOT": 0}, "tle": {"line1": "1 32230U 99025CWC 25341.90749641  .00017841  00000+0  39932-2 0  9998", "line2": "2 32230  98.8720 131.2176 0050877 104.3329  46.6525 14.55923223605999"}}, "geometry": {"type": "Point", "coordinates": [99.85368262127638, 73.5156075530139]}}]}